{"type": "FeatureCollection", "features": [ {"type": "Feature", "properties": {"norad_id": 40938, "name": "BEIDOU-3S IGSO-2S (C56)", "group": "gnss", "lat": -34.27843914579579, "lon": 116.54516492452838, "alt_km": 35591.31853204857, "timestamp": "2025-12-10T20:49:52.796783+00:00", "meta": {"OBJECT_NAME": "BEIDOU-3S IGSO-2S (C56)", "OBJECT_ID": "2015-053A", "EPOCH": "2025-12-09T17:40:38.610336", "MEAN_MOTION": 1.00270089, "ECCENTRICITY": 0.00610607, "INCLINATION": 49.5164, "RA_OF_ASC_NODE": 261.0407, "ARG_OF_PERICENTER": 188.3574, "MEAN_ANOMALY": 350.535, "EPHEMERIS_TYPE": 0, "CLASSIFICATION_TYPE": "U", "NORAD_CAT_ID": 40938, "ELEMENT_SET_NO": 999, "REV_AT_EPOCH": 3745, "BSTAR": 0, "MEAN_MOTION_DOT": -1.49e-06, "MEAN_MOTION_DDOT": 0}, "tle": {"line1": "1 40938U 15053A   25343.73655799 -.00000149  00000+0  00000+0 0  9999", "line2": "2 40938  49.5164 261.0407 0061060 188.3574 350.5350  1.00270089 37451"}}, "geometry": {"type": "Point", "coordinates": [116.54516492452838, -34.27843914579579]}}, {"type": "Feature", "properties": {"norad_id": 41019, "name": "GPS BIIF-11 (PRN 10)", "group": "gnss", "lat": 30.336389215859672, "lon": 60.574718676254996, "alt_km": 20465.44818693097, "timestamp": "2025-12-10T20:49:52.796794+00:00", "meta": {"OBJECT_NAME": "GPS BIIF-11 (PRN 10)", "OBJECT_ID": "2015-062A", "EPOCH": "2025-12-09T07:40:39.423936", "MEAN_MOTION": 2.00567031, "ECCENTRICITY": 0.0110732, "INCLINATION": 56.8297, "RA_OF_ASC_NODE": 38.1346, "ARG_OF_PERICENTER": 229.8556, "MEAN_ANOMALY": 129.2222, "EPHEMERIS_TYPE": 0, "CLASSIFICATION_TYPE": "U", "NORAD_CAT_ID": 41019, "ELEMENT_SET_NO": 999, "REV_AT_EPOCH": 7402, "BSTAR": 0, "MEAN_MOTION_DOT": -8.3e-07, "MEAN_MOTION_DDOT": 0}, "tle": {"line1": "1 41019U 15062A   25343.31990074 -.00000083  00000+0  00000+0 0  9999", "line2": "2 41019  56.8297  38.1346 0110732 229.8556 129.2222  2.00567031 74027"}}, "geometry": {"type": "Point", "coordinates": [60.574718676254996, 30.336389215859672]}}, {"type": "Feature", "properties": {"norad_id": 41028, "name": "GSAT-15 (GAGAN/PRN 139)", "group": "gnss", "lat": 0.007263291646272501, "lon": 125.77286640096973, "alt_km": 35790.00093551429, "timestamp": "2025-12-10T20:49:52.796805+00:00", "meta": {"OBJECT_NAME": "GSAT-15 (GAGAN/PRN 139)", "OBJECT_ID": "2015-065A", "EPOCH": "2025-12-10T02:19:38.704800", "MEAN_MOTION": 1.00272236, "ECCENTRICITY": 0.0002945, "INCLINATION": 0.0189, "RA_OF_ASC_NODE": 306.4282, "ARG_OF_PERICENTER": 287.7645, "MEAN_ANOMALY": 333.296, "EPHEMERIS_TYPE": 0, "CLASSIFICATION_TYPE": "U", "NORAD_CAT_ID": 41028, "ELEMENT_SET_NO": 999, "REV_AT_EPOCH": 3690, "BSTAR": 0, "MEAN_MOTION_DOT": -2.55e-06, "MEAN_MOTION_DDOT": 0}, "tle": {"line1": "1 41028U 15065A   25344.09697575 -.00000255  00000+0  00000+0 0  9999", "line2": "2 41028   0.0189 306.4282 0002945 287.7645 333.2960  1.00272236 36906"}}, "geometry": {"type": "Point", "coordinates": [125.77286640096973, 0.007263291646272501]}}, {"type": "Feature", "properties": {"norad_id": 41174, "name": "GSAT0209 (GALILEO 12)", "group": "gnss", "lat": 53.04608661875383, "lon": 171.39217474381053, "alt_km": 23214.91100001546, "timestamp": "2025-12-10T20:49:52.796817+00:00", "meta": {"OBJECT_NAME": "GSAT0209 (GALILEO 12)", "OBJECT_ID": "2015-079A", "EPOCH": "2025-12-08T09:34:38.512704", "MEAN_MOTION": 1.70474355, "ECCENTRICITY": 0.00023972, "INCLINATION": 55.7104, "RA_OF_ASC_NODE": 106.5001, "ARG_OF_PERICENTER": 353.8677, "MEAN_ANOMALY": 6.0907, "EPHEMERIS_TYPE": 0, "CLASSIFICATION_TYPE": "U", "NORAD_CAT_ID": 41174, "ELEMENT_SET_NO": 999, "REV_AT_EPOCH": 6152, "BSTAR": 0, "MEAN_MOTION_DOT": 1e-07, "MEAN_MOTION_DDOT": 0}, "tle": {"line1": "1 41174U 15079A   25342.39905686  .00000010  00000+0  00000+0 0  9990", "line2": "2 41174  55.7104 106.5001 0002397 353.8677   6.0907  1.70474355 61526"}}, "geometry": {"type": "Point", "coordinates": [171.39217474381053, 53.04608661875383]}}, {"type": "Feature", "properties": {"norad_id": 41175, "name": "GSAT0208 (GALILEO 11)", "group": "gnss", "lat": -45.63123586105653, "lon": 62.24265134626785, "alt_km": 23224.902154226213, "timestamp": "2025-12-10T20:49:52.796828+00:00", "meta": {"OBJECT_NAME": "GSAT0208 (GALILEO 11)", "OBJECT_ID": "2015-079B", "EPOCH": "2025-12-08T14:51:40.201056", "MEAN_MOTION": 1.70474231, "ECCENTRICITY": 0.0001859, "INCLINATION": 55.7088, "RA_OF_ASC_NODE": 106.4912, "ARG_OF_PERICENTER": 3.1611, "MEAN_ANOMALY": 356.8026, "EPHEMERIS_TYPE": 0, "CLASSIFICATION_TYPE": "U", "NORAD_CAT_ID": 41175, "ELEMENT_SET_NO": 999, "REV_AT_EPOCH": 6194, "BSTAR": 0, "MEAN_MOTION_DOT": 1e-07, "MEAN_MOTION_DDOT": 0}, "tle": {"line1": "1 41175U 15079B   25342.61921529  .00000010  00000+0  00000+0 0  9990", "line2": "2 41175  55.7088 106.4912 0001859   3.1611 356.8026  1.70474231 61940"}}, "geometry": {"type": "Point", "coordinates": [62.24265134626785, -45.63123586105653]}}, {"type": "Feature", "properties": {"norad_id": 41241, "name": "IRNSS-1E", "group": "gnss", "lat": 32.42808806046959, "lon": 142.26650374020383, "alt_km": 35806.33780247682, "timestamp": "2025-12-10T20:49:52.796839+00:00", "meta": {"OBJECT_NAME": "IRNSS-1E", "OBJECT_ID": "2016-003A", "EPOCH": "2025-12-08T15:50:39.371424", "MEAN_MOTION": 1.00275569, "ECCENTRICITY": 0.00218793, "INCLINATION": 32.8166, "RA_OF_ASC_NODE": 62.5131, "ARG_OF_PERICENTER": 186.973, "MEAN_ANOMALY": 177.6191, "EPHEMERIS_TYPE": 0, "CLASSIFICATION_TYPE": "U", "NORAD_CAT_ID": 41241, "ELEMENT_SET_NO": 999, "REV_AT_EPOCH": 3617, "BSTAR": 0, "MEAN_MOTION_DOT": -3.11e-06, "MEAN_MOTION_DDOT": 0}, "tle": {"line1": "1 41241U 16003A   25342.66017791 -.00000311  00000+0  00000+0 0  9999", "line2": "2 41241  32.8166  62.5131 0021879 186.9730 177.6191  1.00275569 36173"}}, "geometry": {"type": "Point", "coordinates": [142.26650374020383, 32.42808806046959]}}, {"type": "Feature", "properties": {"norad_id": 41328, "name": "GPS BIIF-12 (PRN 32)", "group": "gnss", "lat": -17.678686044921175, "lon": 84.23235377450449, "alt_km": 20203.657476826247, "timestamp": "2025-12-10T20:49:52.796910+00:00", "meta": {"OBJECT_NAME": "GPS BIIF-12 (PRN 32)", "OBJECT_ID": "2016-007A", "EPOCH": "2025-12-10T09:35:17.707200", "MEAN_MOTION": 2.005608, "ECCENTRICITY": 0.00920502, "INCLINATION": 55.4049, "RA_OF_ASC_NODE": 96.9499, "ARG_OF_PERICENTER": 243.5192, "MEAN_ANOMALY": 115.5235, "EPHEMERIS_TYPE": 0, "CLASSIFICATION_TYPE": "U", "NORAD_CAT_ID": 41328, "ELEMENT_SET_NO": 999, "REV_AT_EPOCH": 7205, "BSTAR": 0, "MEAN_MOTION_DOT": 3e-08, "MEAN_MOTION_DDOT": 0}, "tle": {"line1": "1 41328U 16007A   25344.39951050  .00000003  00000+0  00000+0 0  9993", "line2": "2 41328  55.4049  96.9499 0092050 243.5192 115.5235  2.00560800 72052"}}, "geometry": {"type": "Point", "coordinates": [84.23235377450449, -17.678686044921175]}}, {"type": "Feature", "properties": {"norad_id": 41330, "name": "COSMOS 2514 (751)", "group": "gnss", "lat": 6.4859193247246765, "lon": 136.43592444406676, "alt_km": 19108.439441066253, "timestamp": "2025-12-10T20:49:52.796933+00:00", "meta": {"OBJECT_NAME": "COSMOS 2514 (751)", "OBJECT_ID": "2016-008A", "EPOCH": "2025-12-10T04:09:27.217152", "MEAN_MOTION": 2.13102572, "ECCENTRICITY": 0.0012197, "INCLINATION": 65.1353, "RA_OF_ASC_NODE": 319.4918, "ARG_OF_PERICENTER": 220.0504, "MEAN_ANOMALY": 139.8574, "EPHEMERIS_TYPE": 0, "CLASSIFICATION_TYPE": "U", "NORAD_CAT_ID": 41330, "ELEMENT_SET_NO": 999, "REV_AT_EPOCH": 7659, "BSTAR": 0, "MEAN_MOTION_DOT": -5e-07, "MEAN_MOTION_DDOT": 0}, "tle": {"line1": "1 41330U 16008A   25344.17323168 -.00000050  00000+0  00000+0 0  9999", "line2": "2 41330  65.1353 319.4918 0012197 220.0504 139.8574  2.13102572 76591"}}, "geometry": {"type": "Point", "coordinates": [136.43592444406676, 6.4859193247246765]}}, {"type": "Feature", "properties": {"norad_id": 41384, "name": "IRNSS-1F", "group": "gnss", "lat": -2.8798728654407566, "lon": 64.92150291975943, "alt_km": 35862.748955113784, "timestamp": "2025-12-10T20:49:52.796947+00:00", "meta": {"OBJECT_NAME": "IRNSS-1F", "OBJECT_ID": "2016-015A", "EPOCH": "2025-12-10T01:42:33.702624", "MEAN_MOTION": 1.00271105, "ECCENTRICITY": 0.00225084, "INCLINATION": 4.8738, "RA_OF_ASC_NODE": 101.3662, "ARG_OF_PERICENTER": 180.3375, "MEAN_ANOMALY": 215.349, "EPHEMERIS_TYPE": 0, "CLASSIFICATION_TYPE": "U", "NORAD_CAT_ID": 41384, "ELEMENT_SET_NO": 999, "REV_AT_EPOCH": 3577, "BSTAR": 0, "MEAN_MOTION_DOT": 1.61e-06, "MEAN_MOTION_DDOT": 0}, "tle": {"line1": "1 41384U 16015A   25344.07122341  .00000161  00000+0  00000+0 0  9997", "line2": "2 41384   4.8738 101.3662 0022508 180.3375 215.3490  1.00271105 35778"}}, "geometry": {"type": "Point", "coordinates": [64.92150291975943, -2.8798728654407566]}}, {"type": "Feature", "properties": {"norad_id": 41434, "name": "BEIDOU-2 IGSO-6 (C13)", "group": "gnss", "lat": 59.56829033157689, "lon": 119.60933776886628, "alt_km": 35977.4860844002, "timestamp": "2025-12-10T20:49:52.796959+00:00", "meta": {"OBJECT_NAME": "BEIDOU-2 IGSO-6 (C13)", "OBJECT_ID": "2016-021A", "EPOCH": "2025-12-03T15:53:57.382080", "MEAN_MOTION": 1.00293531, "ECCENTRICITY": 0.00596341, "INCLINATION": 59.9536, "RA_OF_ASC_NODE": 39.991, "ARG_OF_PERICENTER": 228.541, "MEAN_ANOMALY": 135.1173, "EPHEMERIS_TYPE": 0, "CLASSIFICATION_TYPE": "U", "NORAD_CAT_ID": 41434, "ELEMENT_SET_NO": 999, "REV_AT_EPOCH": 3552, "BSTAR": 0, "MEAN_MOTION_DOT": -1.61e-06, "MEAN_MOTION_DDOT": 0}, "tle": {"line1": "1 41434U 16021A   25337.66246970 -.00000161  00000+0  00000+0 0  9993", "line2": "2 41434  59.9536  39.9910 0059634 228.5410 135.1173  1.00293531 35525"}}, "geometry": {"type": "Point", "coordinates": [119.60933776886628, 59.56829033157689]}}]}